{
    "links": {
        "self": "http://www.neowsapp.com/rest/v1/neo/3791299?api_key=iIulBulltgU6a56xZRHN4H3l9WmuAYTsLGpBGhQ2"
    },
    "id": "3791299",
    "neo_reference_id": "3791299",
    "name": "(2017 XW2)",
    "designation": "2017 XW2",
    "nasa_jpl_url": "http://ssd.jpl.nasa.gov/sbdb.cgi?sstr=3791299",
    "absolute_magnitude_h": 24.9,
    "estimated_diameter": {
        "kilometers": {
            "estimated_diameter_min": 0.0278326768,
            "estimated_diameter_max": 0.0622357573
        },
        "meters": {
            "estimated_diameter_min": 27.8326768072,
            "estimated_diameter_max": 62.2357573367
        },
        "miles": {
            "estimated_diameter_min": 0.0172944182,
            "estimated_diameter_max": 0.0386714948
        },
        "feet": {
            "estimated_diameter_min": 91.3145593761,
            "estimated_diameter_max": 204.1855621004
        }
    },
    "is_potentially_hazardous_asteroid": false,
    "close_approach_data": [
        {
            "close_approach_date": "2017-12-02",
            "close_approach_date_full": "2017-Dec-02 19:26",
            "epoch_date_close_approach": 1512242760000,
            "relative_velocity": {
                "kilometers_per_second": "7.1064123796",
                "kilometers_per_hour": "25583.0845666811",
                "miles_per_hour": "15896.3338520025"
            },
            "miss_distance": {
                "astronomical": "0.0622095805",
                "lunar": "24.1995268145",
                "kilometers": "9306420.736393535",
                "miles": "5782741.696299383"
            },
            "orbiting_body": "Earth"
        },
        {
            "close_approach_date": "2159-01-07",
            "close_approach_date_full": "2159-Jan-07 19:47",
            "epoch_date_close_approach": 5964868020000,
            "relative_velocity": {
                "kilometers_per_second": "11.1490730883",
                "kilometers_per_hour": "40136.6631179135",
                "miles_per_hour": "24939.3615912391"
            },
            "miss_distance": {
                "astronomical": "0.191255207",
                "lunar": "74.398275523",
                "kilometers": "28611371.59360909",
                "miles": "17778281.918381842"
            },
            "orbiting_body": "Earth"
        }
    ],
    "orbital_data": {
        "orbit_id": "4",
        "orbit_determination_date": "2017-12-23 06:23:26",
        "first_observation_date": "2017-12-12",
        "last_observation_date": "2017-12-23",
        "data_arc_in_days": 11,
        "observations_used": 39,
        "orbit_uncertainty": "8",
        "minimum_orbit_intersection": ".0552871",
        "jupiter_tisserand_invariant": "3.317",
        "epoch_osculation": "2458101.5",
        "eccentricity": ".5595727482941183",
        "semi_major_axis": "2.358246132290723",
        "inclination": "5.470334032852483",
        "ascending_node_longitude": "84.63041753279333",
        "orbital_period": "1322.763257939526",
        "perihelion_distance": "1.038635862890828",
        "perihelion_argument": "350.8807449553161",
        "aphelion_distance": "3.677856401690617",
        "perihelion_time": "2458093.477111122486",
        "mean_anomaly": "2.183489735271347",
        "mean_motion": ".2721575443218566",
        "equinox": "J2000",
        "orbit_class": {
            "orbit_class_type": "AMO",
            "orbit_class_description": "Near-Earth asteroid orbits similar to that of 1221 Amor",
            "orbit_class_range": "1.017 AU < q (perihelion) < 1.3 AU"
        }
    },
    "is_sentry_object": false
}